LIME                    
1 62648U 25009AR  26068.73906781  .00013254  00000+0  47723-3 0  9995
2 62648  97.3985 151.4831 0001635  35.9029 324.2320 15.28703313 63766
STARLINK-36428          
1 67362U 26003AE  26068.48382604  .00037240  00000+0  13547-2 0  9999
2 67362  43.0027 228.1124 0001227 240.5697 119.5033 15.27610726  8790
